OBJECT_NAME,OBJECT_ID,EPOCH,MEAN_MOTION,ECCENTRICITY,INCLINATION,RA_OF_ASC_NODE,ARG_OF_PERICENTER,MEAN_ANOMALY,EPHEMERIS_TYPE,CLASSIFICATION_TYPE,NORAD_CAT_ID,ELEMENT_SET_NO,REV_AT_EPOCH,BSTAR,MEAN_MOTION_DOT,MEAN_MOTION_DDOT
COSMOS 2507 (RODNIK-S 13),2015-050A,2026-05-15T07:26:23.763264,12.42926145,.00111574,82.4887,100.1382,63.1988,297.0231,0,U,40920,999,48277,.24058653E-3,.43E-6,0
COSMOS 2508 (RODNIK-S 14),2015-050B,2026-05-15T06:21:08.394336,12.42913077,.00154761,82.4840,98.6840,93.6985,266.5865,0,U,40921,999,48275,-.23384735E-3,-.22E-6,0
COSMOS 2509 (RODNIK-S 15),2015-050C,2026-05-15T06:49:14.966400,12.42882949,.0015632,82.4849,98.7707,109.7360,250.5407,0,U,40922,999,48279,.24062611E-3,.43E-6,0
LINGQIAO VIDEO A,2015-057B,2026-05-15T07:25:58.313280,14.77345113,.00174886,97.6618,131.7364,21.5791,338.6154,0,U,40959,999,57055,.92694575E-4,.612E-5,0
LINGQIAO VIDEO B,2015-057C,2026-05-15T06:55:46.568352,14.77449422,.00176381,97.6584,132.8888,21.5854,338.6097,0,U,40960,999,57059,.10827827E-3,.724E-5,0
JILIN-1,2015-057D,2026-05-15T05:58:48.145440,14.78101865,.00173695,97.6511,136.2535,16.1970,343.9793,0,U,40961,999,57074,.68333039E-4,.447E-5,0
FOX-1A (AO-85),2015-058D,2026-05-15T01:57:04.081536,14.90765194,.01290509,64.7770,21.8508,69.5693,291.9222,0,U,40967,999,10863,.20270242E-3,.2163E-4,0
SINOD-D 1,2015-058E,2026-05-15T01:11:44.185344,14.95635688,.01175621,64.7764,2.6651,66.3586,294.9817,0,U,40968,999,11170,.25283302E-3,.3055E-4,0
ELEKTRO-L 2,2015-074A,2026-05-15T04:07:06.379968,1.00272353,.0001452,6.6109,70.9209,263.1566,306.1029,0,U,41105,999,3817,0,-.104E-5,0
DAMPE,2015-078A,2026-05-15T06:53:40.276608,15.30696358,.00115635,97.4566,140.5947,184.4377,175.6763,0,U,41173,999,57951,.1613687E-4,.402E-5,0
ORBCOMM FM114,2015-081A,2026-05-15T05:47:30.344352,14.58818836,.00016163,47.0031,157.7635,20.3518,339.7432,0,U,41179,999,55294,.6804646E-4,.15E-5,0
ORBCOMM FM110,2015-081D,2026-05-15T05:31:14.638656,14.58823699,.00040701,47.0002,157.2667,280.6941,79.3486,0,U,41182,999,55281,.88701519E-4,.247E-5,0
ORBCOMM FM112,2015-081F,2026-05-15T04:49:19.732512,14.58758166,.00022739,46.9990,66.2211,47.4921,312.6156,0,U,41184,999,55413,.98530365E-4,.294E-5,0
ORBCOMM FM113,2015-081G,2026-05-15T04:14:27.335328,14.58819231,.00012424,47.0010,66.6976,26.6768,333.4181,0,U,41185,999,55411,.72433065E-4,.171E-5,0
ORBCOMM FM108,2015-081J,2026-05-14T22:24:42.122304,14.58821527,.00021601,47.0060,339.4121,39.1885,320.9157,0,U,41187,999,55522,.11693114E-3,.381E-5,0
ORBCOMM FM117,2015-081K,2026-05-14T23:13:34.329216,14.58819311,.00025845,47.0024,337.8957,47.9912,312.1193,0,U,41188,999,55527,.11207139E-3,.358E-5,0
ORBCOMM FM116,2015-081L,2026-05-15T05:20:16.241280,14.58827890,.00023073,47.0026,66.4793,283.3294,76.7334,0,U,41189,999,55412,.7804063E-4,.197E-5,0
HORYU-4,2016-012D,2026-05-14T19:51:52.372800,15.78477287,.0005199,30.9889,320.3702,40.9689,319.1358,0,U,41340,999,56551,.72841598E-3,.13415E-2,0
ZIYUAN 3-02 (ZY 3-02),2016-033A,2026-05-15T07:16:34.314816,15.21462664,.00136145,97.3842,211.7064,55.4349,304.8170,0,U,41556,999,55298,.14575283E-3,.3214E-4,0
CARTOSAT-2C,2016-040A,2026-05-15T06:14:56.100192,15.19209314,.00083617,97.4508,195.6861,244.9058,115.1309,0,U,41599,999,54871,.81830617E-4,.1655E-4,0
LAPAN-A3,2016-040E,2026-05-15T07:01:45.390144,15.32887312,.00118217,97.1492,132.5268,127.2401,232.9922,0,U,41603,999,54977,.67633078E-4,.2077E-4,0
GAOFEN-3,2016-049A,2026-05-15T06:26:05.156736,14.42211280,.00009809,98.4021,143.5506,79.8103,280.3197,0,U,41727,999,51390,.61449998E-4,.159E-5,0
CAS-2T & KS-1Q,2016-066G,2026-05-15T04:50:12.557472,14.44593341,.03411648,98.3825,211.3114,229.5181,127.5815,0,U,41847,999,50003,.84601303E-4,.532E-5,0
YUNHAI-1 01,2016-068A,2026-05-15T08:13:04.864224,14.32716032,.0006355,98.5845,146.6542,122.8260,237.3537,0,U,41857,999,49712,.20031453E-3,.501E-5,0
RESOURCESAT-2A,2016-074A,2026-05-15T06:32:32.079264,14.21604690,.00026669,98.7535,209.0442,147.5332,212.6010,0,U,41877,999,48962,-.23533208E-4,-.96E-6,0
