COSMOS 2507 (RODNIK-S *)
1 40920U 15050A   26135.30999726  .00000043  00000+0  24059-3 0  9997
2 40920  82.4887 100.1382 0011157  63.1988 297.0231 12.42926145482777
COSMOS 2508 (RODNIK-S *)
1 40921U 15050B   26135.26468049 -.00000022  00000+0 -23385-3 0  9992
2 40921  82.4840  98.6840 0015476  93.6985 266.5865 12.42913077482752
COSMOS 2509 (RODNIK-S *)
1 40922U 15050C   26135.28420100  .00000043  00000+0  24063-3 0  9996
2 40922  82.4849  98.7707 0015632 109.7360 250.5407 12.42882949482797
LINGQIAO VIDEO A        
1 40959U 15057B   26135.30970270  .00000612  00000+0  92695-4 0  9993
2 40959  97.6618 131.7364 0017488  21.5791 338.6154 14.77345113570552
LINGQIAO VIDEO B        
1 40960U 15057C   26135.28873343  .00000724  00000+0  10828-3 0  9996
2 40960  97.6584 132.8888 0017638  21.5854 338.6097 14.77449422570594
JILIN-1                 
1 40961U 15057D   26135.24916835  .00000447  00000+0  68333-4 0  9994
2 40961  97.6511 136.2535 0017369  16.1970 343.9793 14.78101865570748
FOX-1A (AO-85)          
1 40967U 15058D   26135.08129724  .00002163  00000+0  20270-3 0  9990
2 40967  64.7770  21.8508 0129050  69.5693 291.9222 14.90765194108639
SINOD-D 1               
1 40968U 15058E   26135.04981696  .00003055  00000+0  25283-3 0  9991
2 40968  64.7764   2.6651 0117562  66.3586 294.9817 14.95635688111704
ELEKTRO-L 2             
1 41105U 15074A   26135.17160162 -.00000104  00000+0  00000+0 0  9993
2 41105   6.6109  70.9209 0001452 263.1566 306.1029  1.00272353 38176
DAMPE                   
1 41173U 15078A   26135.28727172  .00000402  00000+0  16137-4 0  9997
2 41173  97.4566 140.5947 0011563 184.4377 175.6763 15.30696358579513
ORBCOMM FM114           
1 41179U 15081A   26135.24132343  .00000150  00000+0  68046-4 0  9999
2 41179  47.0031 157.7635 0001616  20.3518 339.7432 14.58818836552944
ORBCOMM FM110           
1 41182U 15081D   26135.23003054  .00000247  00000+0  88702-4 0  9996
2 41182  47.0002 157.2667 0004070 280.6941  79.3486 14.58823699552819
ORBCOMM FM112           
1 41184U 15081F   26135.20092283  .00000294  00000+0  98530-4 0  9999
2 41184  46.9990  66.2211 0002273  47.4921 312.6156 14.58758166554139
ORBCOMM FM113           
1 41185U 15081G   26135.17670527  .00000171  00000+0  72433-4 0  9997
2 41185  47.0010  66.6976 0001242  26.6768 333.4181 14.58819231554118
ORBCOMM FM108           
1 41187U 15081J   26134.93382086  .00000381  00000+0  11693-3 0  9995
2 41187  47.0060 339.4121 0002160  39.1885 320.9157 14.58821527555225
ORBCOMM FM117           
1 41188U 15081K   26134.96775844  .00000358  00000+0  11207-3 0  9992
2 41188  47.0024 337.8957 0002584  47.9912 312.1193 14.58819311555279
ORBCOMM FM116           
1 41189U 15081L   26135.22241020  .00000197  00000+0  78041-4 0  9998
2 41189  47.0026  66.4793 0002307 283.3294  76.7334 14.58827890554121
HORYU-4                 
1 41340U 16012D   26134.82768950  .00134150  00000+0  72842-3 0  9992
2 41340  30.9889 320.3702 0005199  40.9689 319.1358 15.78477287565516
ZIYUAN 3-02 (ZY 3-02)   
1 41556U 16033A   26135.30317494  .00003214  00000+0  14575-3 0  9996
2 41556  97.3842 211.7064 0013614  55.4349 304.8170 15.21462664552981
CARTOSAT-2C             
1 41599U 16040A   26135.26037153  .00001655  00000+0  81831-4 0  9994
2 41599  97.4508 195.6861 0008361 244.9058 115.1309 15.19209314548719
LAPAN-A3                
1 41603U 16040E   26135.29288646  .00002077  00000+0  67633-4 0  9991
2 41603  97.1492 132.5268 0011821 127.2401 232.9922 15.32887312549776
GAOFEN-3                
1 41727U 16049A   26135.26811524  .00000159  00000+0  61450-4 0  9991
2 41727  98.4021 143.5506 0000980  79.8103 280.3197 14.42211280513909
CAS-2T & KS-1Q          
1 41847U 16066G   26135.20153423  .00000532  00000+0  84601-4 0  9992
2 41847  98.3825 211.3114 0341164 229.5181 127.5815 14.44593341500036
YUNHAI-1 01             
1 41857U 16068A   26135.34241741  .00000501  00000+0  20031-3 0  9993
2 41857  98.5845 146.6542 0006355 122.8260 237.3537 14.32716032497126
RESOURCESAT-2A          
1 41877U 16074A   26135.27259351 -.00000096  00000+0 -23533-4 0  9992
2 41877  98.7535 209.0442 0002666 147.5332 212.6010 14.21604690489626
